[
  {
    "COMMENT": "GENERATED VIA SPACETRACK.ORG API",
    "ORIGINATOR": "18 SPCS",
    "NORAD_CAT_ID": "46469",
    "OBJECT_NAME": "HAIYANG 2C",
    "OBJECT_TYPE": "PAYLOAD",
    "CLASSIFICATION_TYPE": "U",
    "INTLDES": "20066A",
    "EPOCH": "2023-08-03 17:55:43",
    "EPOCH_MICROSECONDS": "671072",
    "MEAN_MOTION": "13.83372001",
    "ECCENTRICITY": "0.0011558",
    "INCLINATION": "65.9974",
    "RA_OF_ASC_NODE": "305.6697",
    "ARG_OF_PERICENTER": "293.9533",
    "MEAN_ANOMALY": "66.0325",
    "EPHEMERIS_TYPE": "0",
    "ELEMENT_SET_NO": "999",
    "REV_AT_EPOCH": "14475",
    "BSTAR": "0.000096298",
    "MEAN_MOTION_DOT": "0.00000025",
    "MEAN_MOTION_DDOT": "0",
    "FILE": "3970704",
    "TLE_LINE0": "0 HAIYANG 2C",
    "TLE_LINE1": "1 46469U 20066A   23215.74703323  .00000025  00000-0  96298-4 0  9990",
    "TLE_LINE2": "2 46469  65.9974 305.6697 0011558 293.9533  66.0325 13.83372001144752",
    "OBJECT_ID": "2020-066A",
    "OBJECT_NUMBER": "46469",
    "SEMIMAJOR_AXIS": "7330.088",
    "PERIOD": "104.093",
    "APOGEE": "960.425",
    "PERIGEE": "943.481",
    "DECAYED": "0"
  },
  {
    "COMMENT": "GENERATED VIA SPACETRACK.ORG API",
    "ORIGINATOR": "18 SPCS",
    "NORAD_CAT_ID": "46469",
    "OBJECT_NAME": "HAIYANG 2C",
    "OBJECT_TYPE": "PAYLOAD",
    "CLASSIFICATION_TYPE": "U",
    "INTLDES": "20066A",
    "EPOCH": "2023-08-04 02:36:15",
    "EPOCH_MICROSECONDS": "49728",
    "MEAN_MOTION": "13.83372068",
    "ECCENTRICITY": "0.0011569",
    "INCLINATION": "65.9973",
    "RA_OF_ASC_NODE": "304.7697",
    "ARG_OF_PERICENTER": "293.8909",
    "MEAN_ANOMALY": "66.0947",
    "EPHEMERIS_TYPE": "0",
    "ELEMENT_SET_NO": "999",
    "REV_AT_EPOCH": "14480",
    "BSTAR": "0.000093491",
    "MEAN_MOTION_DOT": "0.00000022",
    "MEAN_MOTION_DDOT": "0",
    "FILE": "3970963",
    "TLE_LINE0": "0 HAIYANG 2C",
    "TLE_LINE1": "1 46469U 20066A   23216.10850752  .00000022  00000-0  93491-4 0  9999",
    "TLE_LINE2": "2 46469  65.9973 304.7697 0011569 293.8909  66.0947 13.83372068144808",
    "OBJECT_ID": "2020-066A",
    "OBJECT_NUMBER": "46469",
    "SEMIMAJOR_AXIS": "7330.088",
    "PERIOD": "104.093",
    "APOGEE": "960.433",
    "PERIGEE": "943.473",
    "DECAYED": "0"
  },
  {
    "COMMENT": "GENERATED VIA SPACETRACK.ORG API",
    "ORIGINATOR": "18 SPCS",
    "NORAD_CAT_ID": "46469",
    "OBJECT_NAME": "HAIYANG 2C",
    "OBJECT_TYPE": "PAYLOAD",
    "CLASSIFICATION_TYPE": "U",
    "INTLDES": "20066A",
    "EPOCH": "2023-08-04 09:32:40",
    "EPOCH_MICROSECONDS": "149888",
    "MEAN_MOTION": "13.83372071",
    "ECCENTRICITY": "0.0011574",
    "INCLINATION": "65.9973",
    "RA_OF_ASC_NODE": "304.0497",
    "ARG_OF_PERICENTER": "293.7975",
    "MEAN_ANOMALY": "66.1879",
    "EPHEMERIS_TYPE": "0",
    "ELEMENT_SET_NO": "999",
    "REV_AT_EPOCH": "14484",
    "BSTAR": "0.000082209",
    "MEAN_MOTION_DOT": "0.00000009",
    "MEAN_MOTION_DDOT": "0",
    "FILE": "3971330",
    "TLE_LINE0": "0 HAIYANG 2C",
    "TLE_LINE1": "1 46469U 20066A   23216.39768692  .00000009  00000-0  82209-4 0  9991",
    "TLE_LINE2": "2 46469  65.9973 304.0497 0011574 293.7975  66.1879 13.83372071144840",
    "OBJECT_ID": "2020-066A",
    "OBJECT_NUMBER": "46469",
    "SEMIMAJOR_AXIS": "7330.088",
    "PERIOD": "104.093",
    "APOGEE": "960.437",
    "PERIGEE": "943.469",
    "DECAYED": "0"
  },
  {
    "COMMENT": "GENERATED VIA SPACETRACK.ORG API",
    "ORIGINATOR": "18 SPCS",
    "NORAD_CAT_ID": "46469",
    "OBJECT_NAME": "HAIYANG 2C",
    "OBJECT_TYPE": "PAYLOAD",
    "CLASSIFICATION_TYPE": "U",
    "INTLDES": "20066A",
    "EPOCH": "2023-08-04 18:13:11",
    "EPOCH_MICROSECONDS": "525952",
    "MEAN_MOTION": "13.83372161",
    "ECCENTRICITY": "0.0011592",
    "INCLINATION": "65.9972",
    "RA_OF_ASC_NODE": "303.1498",
    "ARG_OF_PERICENTER": "293.7537",
    "MEAN_ANOMALY": "66.2315",
    "EPHEMERIS_TYPE": "0",
    "ELEMENT_SET_NO": "999",
    "REV_AT_EPOCH": "14489",
    "BSTAR": "0.000087153",
    "MEAN_MOTION_DOT": "0.00000015",
    "MEAN_MOTION_DDOT": "0",
    "FILE": "3971589",
    "TLE_LINE0": "0 HAIYANG 2C",
    "TLE_LINE1": "1 46469U 20066A   23216.75916118  .00000015  00000-0  87153-4 0  9999",
    "TLE_LINE2": "2 46469  65.9972 303.1498 0011592 293.7537  66.2315 13.83372161144895",
    "OBJECT_ID": "2020-066A",
    "OBJECT_NUMBER": "46469",
    "SEMIMAJOR_AXIS": "7330.087",
    "PERIOD": "104.093",
    "APOGEE": "960.449",
    "PERIGEE": "943.455",
    "DECAYED": "0"
  },
  {
    "COMMENT": "GENERATED VIA SPACETRACK.ORG API",
    "ORIGINATOR": "18 SPCS",
    "NORAD_CAT_ID": "46469",
    "OBJECT_NAME": "HAIYANG 2C",
    "OBJECT_TYPE": "PAYLOAD",
    "CLASSIFICATION_TYPE": "U",
    "INTLDES": "20066A",
    "EPOCH": "2023-08-05 02:53:42",
    "EPOCH_MICROSECONDS": "899424",
    "MEAN_MOTION": "13.83372228",
    "ECCENTRICITY": "0.0011608",
    "INCLINATION": "65.9972",
    "RA_OF_ASC_NODE": "302.2498",
    "ARG_OF_PERICENTER": "293.6885",
    "MEAN_ANOMALY": "66.2965",
    "EPHEMERIS_TYPE": "0",
    "ELEMENT_SET_NO": "999",
    "REV_AT_EPOCH": "14494",
    "BSTAR": "0.000084555",
    "MEAN_MOTION_DOT": "0.00000012",
    "MEAN_MOTION_DDOT": "0",
    "FILE": "3971800",
    "TLE_LINE0": "0 HAIYANG 2C",
    "TLE_LINE1": "1 46469U 20066A   23217.12063541  .00000012  00000-0  84555-4 0  9994",
    "TLE_LINE2": "2 46469  65.9972 302.2498 0011608 293.6885  66.2965 13.83372228144949",
    "OBJECT_ID": "2020-066A",
    "OBJECT_NUMBER": "46469",
    "SEMIMAJOR_AXIS": "7330.087",
    "PERIOD": "104.093",
    "APOGEE": "960.461",
    "PERIGEE": "943.443",
    "DECAYED": "0"
  },
  {
    "COMMENT": "GENERATED VIA SPACETRACK.ORG API",
    "ORIGINATOR": "18 SPCS",
    "NORAD_CAT_ID": "46469",
    "OBJECT_NAME": "HAIYANG 2C",
    "OBJECT_TYPE": "PAYLOAD",
    "CLASSIFICATION_TYPE": "U",
    "INTLDES": "20066A",
    "EPOCH": "2023-08-05 09:50:07",
    "EPOCH_MICROSECONDS": "993536",
    "MEAN_MOTION": "13.83372298",
    "ECCENTRICITY": "0.001162",
    "INCLINATION": "65.9972",
    "RA_OF_ASC_NODE": "301.5299",
    "ARG_OF_PERICENTER": "293.6354",
    "MEAN_ANOMALY": "66.3494",
    "EPHEMERIS_TYPE": "0",
    "ELEMENT_SET_NO": "999",
    "REV_AT_EPOCH": "14498",
    "BSTAR": "0.000085245",
    "MEAN_MOTION_DOT": "0.00000013",
    "MEAN_MOTION_DDOT": "0",
    "FILE": "3972109",
    "TLE_LINE0": "0 HAIYANG 2C",
    "TLE_LINE1": "1 46469U 20066A   23217.40981474  .00000013  00000-0  85245-4 0  9997",
    "TLE_LINE2": "2 46469  65.9972 301.5299 0011620 293.6354  66.3494 13.83372298144984",
    "OBJECT_ID": "2020-066A",
    "OBJECT_NUMBER": "46469",
    "SEMIMAJOR_AXIS": "7330.087",
    "PERIOD": "104.093",
    "APOGEE": "960.469",
    "PERIGEE": "943.434",
    "DECAYED": "0"
  },
  {
    "COMMENT": "GENERATED VIA SPACETRACK.ORG API",
    "ORIGINATOR": "18 SPCS",
    "NORAD_CAT_ID": "46469",
    "OBJECT_NAME": "HAIYANG 2C",
    "OBJECT_TYPE": "PAYLOAD",
    "CLASSIFICATION_TYPE": "U",
    "INTLDES": "20066A",
    "EPOCH": "2023-08-05 16:46:33",
    "EPOCH_MICROSECONDS": "91968",
    "MEAN_MOTION": "13.83372381",
    "ECCENTRICITY": "0.0011635",
    "INCLINATION": "65.9971",
    "RA_OF_ASC_NODE": "300.8099",
    "ARG_OF_PERICENTER": "293.5988",
    "MEAN_ANOMALY": "66.3858",
    "EPHEMERIS_TYPE": "0",
    "ELEMENT_SET_NO": "999",
    "REV_AT_EPOCH": "14502",
    "BSTAR": "0.000092809",
    "MEAN_MOTION_DOT": "0.00000021",
    "MEAN_MOTION_DDOT": "0",
    "FILE": "3972426",
    "TLE_LINE0": "0 HAIYANG 2C",
    "TLE_LINE1": "1 46469U 20066A   23217.69899412  .00000021  00000-0  92809-4 0  9991",
    "TLE_LINE2": "2 46469  65.9971 300.8099 0011635 293.5988  66.3858 13.83372381145024",
    "OBJECT_ID": "2020-066A",
    "OBJECT_NUMBER": "46469",
    "SEMIMAJOR_AXIS": "7330.087",
    "PERIOD": "104.093",
    "APOGEE": "960.480",
    "PERIGEE": "943.423",
    "DECAYED": "0"
  },
  {
    "COMMENT": "GENERATED VIA SPACETRACK.ORG API",
    "ORIGINATOR": "18 SPCS",
    "NORAD_CAT_ID": "46469",
    "OBJECT_NAME": "HAIYANG 2C",
    "OBJECT_TYPE": "PAYLOAD",
    "CLASSIFICATION_TYPE": "U",
    "INTLDES": "20066A",
    "EPOCH": "2023-08-06 04:55:17",
    "EPOCH_MICROSECONDS": "12064",
    "MEAN_MOTION": "13.8337243",
    "ECCENTRICITY": "0.0011654",
    "INCLINATION": "65.997",
    "RA_OF_ASC_NODE": "299.55",
    "ARG_OF_PERICENTER": "293.5277",
    "MEAN_ANOMALY": "66.4567",
    "EPHEMERIS_TYPE": "0",
    "ELEMENT_SET_NO": "999",
    "REV_AT_EPOCH": "14509",
    "BSTAR": "0.000082503",
    "MEAN_MOTION_DOT": "0.0000001",
    "MEAN_MOTION_DDOT": "0",
    "FILE": "3972714",
    "TLE_LINE0": "0 HAIYANG 2C",
    "TLE_LINE1": "1 46469U 20066A   23218.20505801  .00000010  00000-0  82503-4 0  9993",
    "TLE_LINE2": "2 46469  65.9970 299.5500 0011654 293.5277  66.4567 13.83372430145096",
    "OBJECT_ID": "2020-066A",
    "OBJECT_NUMBER": "46469",
    "SEMIMAJOR_AXIS": "7330.086",
    "PERIOD": "104.093",
    "APOGEE": "960.494",
    "PERIGEE": "943.409",
    "DECAYED": "0"
  }
]